APRIZESAT 2             
1 28366U 04025A   26196.46472554  .00000088  00000+0  40361-4 0  9990
2 28366  98.1042   0.8477 0105953 164.0512 196.4055 14.38047709155700
SAUDICOMSAT 1           
1 28369U 04025D   26196.47692938  .00000138  00000+0  42974-4 0  9992
2 28369  98.5778 207.3726 0030992 298.0104  61.7957 14.55493695168245
SAUDICOMSAT 2           
1 28370U 04025E   26196.83178662  .00000088  00000+0  34862-4 0  9998
2 28370  98.6643 209.8879 0055675 171.7576 188.4545 14.49994542164257
APRIZESAT 1             
1 28372U 04025G   26196.82796760  .00000110  00000+0  39190-4 0  9999
2 28372  98.6309 208.3334 0045762  68.8027 291.8047 14.51792243166065
NANOSAT-1               
1 28493U 04049B   26196.69623139  .00000477  00000+0  70088-4 0  9990
2 28493  98.2310 334.0605 0003838 182.2810 177.8384 14.80211397159667
SAUDICOMSAT 7           
1 31119U 07012C   26196.84514868  .00000228  00000+0  49940-4 0  9994
2 31119  98.3798 171.5664 0056987 106.3031 254.4450 14.66136971 26635
SAUDICOMSAT 6           
1 31121U 07012E   26196.82373204  .00000153  00000+0  39411-4 0  9991
2 31121  98.4118 164.8767 0070543 237.1146 122.3254 14.62584758 24378
SAUDICOMSAT 5           
1 31124U 07012H   26196.84657891  .00000307  00000+0  61591-4 0  9998
2 31124  98.3511 172.3091 0048211  36.8100 323.6398 14.68192658 27808
SAUDICOMSAT 3           
1 31125U 07012J   26196.82537250  .00000342  00000+0  64357-4 0  9995
2 31125  98.3165 172.8339 0038228 323.2071  36.6512 14.70750216 29030
SAUDICOMSAT 4           
1 31127U 07012L   26196.85005485  .00000188  00000+0  44333-4 0  9990
2 31127  98.4004 170.0082 0063621 167.6914 192.5860 14.64535668 25489
APRIZESAT 4             
1 35684U 09041D   26196.78036154  .00000351  00000+0  48694-4 0  9991
2 35684  98.1404 272.6697 0042262 227.5897 132.1738 14.83914289915604
APRIZESAT 3             
1 35686U 09041F   26196.38626186  .00000843  00000+0  77857-4 0  9998
2 35686  98.2100 350.9673 0060795 335.2868  24.5441 14.96311283920598
S-NET D                 
1 43186U 18014G   26196.63103245  .00002654  00000+0  13807-3 0  9992
2 43186  97.5333 101.2453 0006209 283.0320  77.0220 15.16920297463075
S-NET B                 
1 43187U 18014H   26196.64304466  .00002463  00000+0  12848-3 0  9994
2 43187  97.5338 101.2446 0006841 276.7896  83.2558 15.16889958463073
S-NET A                 
1 43188U 18014J   26196.62975302  .00002717  00000+0  14119-3 0  9991
2 43188  97.5348 101.4458 0006705 277.8489  82.1983 15.16928771463076
S-NET C                 
1 43189U 18014K   26196.64707332  .00002432  00000+0  12688-3 0  9993
2 43189  97.5366 101.5419 0008104 268.4533  91.5771 15.16881245461628
SALSAT                  
1 46495U 20068K   26196.46428795  .00004051  00000+0  14153-3 0  9999
2 46495  97.8855 201.2595 0009213 191.9024 168.1999 15.30174422319686
OOV-CUBE (TUBSAT-30)    
1 60240U 24128F   26196.79932352  .00000956  00000+0  85526-4 0  9992
2 60240  61.9938 125.7955 0041038 140.1707 220.2409 15.02875215110412
LPNTSAT-001 (IOD-1)     
1 68408U 26065A   26196.47611897  .00001327  00000+0  67143-4 0  9999
2 68408  97.3980  76.3842 0014622 265.3681  94.5883 15.18669547 16556
CHUANG XIN 26 (CX-26)   
1 69972U 26158A   26194.51442212 -.00000212  00000+0 -21871-4 0  9997
2 69972  49.9860 287.5119 0004887 294.2352  65.8050 14.25122238   462
